IRIDIUM 150             
1 43257U 18030J   23329.94768505  .00000401  00000+0  13622-3 0  9997
2 43257  86.3941 320.9208 0002542  95.1327 265.0159 14.34222643296251
IRIDIUM 143             
1 43258U 18030K   23329.92864403  .00000395  00000+0  13380-3 0  9993
2 43258  86.3946 320.9844 0002476  87.0735 273.0744 14.34221711296188
IRIDIUM 161             
1 43478U 18047C   23329.93588815  .00001208  00000+0  35299-3 0  9993
2 43478  86.4469 118.9575 0002063  93.3421 266.8016 14.43285313290389
IRIDIUM 152             
1 43479U 18047D   23329.90136292  .00000911  00000+0  31820-3 0  9995
2 43479  86.3944 118.8316 0002219  87.7165 272.4284 14.34224339288573
IRIDIUM 147             
1 43480U 18047E   23329.90770493  .00000963  00000+0  33673-3 0  9999
2 43480  86.3945 118.8175 0001832  94.4661 265.6744 14.34222099288571
IRIDIUM 110             
1 43481U 18047F   23329.91404499  .00000963  00000+0  33685-3 0  9994
2 43481  86.3945 118.8822 0001921  99.9995 260.1417 14.34224200288562
IRIDIUM 162             
1 43482U 18047G   23329.86025941  .00001172  00000+0  34234-3 0  9994
2 43482  86.4469 118.8920 0002099  93.9424 266.2017 14.43284483290365
IRIDIUM 160             
1 43569U 18061A   23329.85988630  .00000935  00000+0  32667-3 0  9992
2 43569  86.3959  87.2607 0001789  85.6691 274.4709 14.34224692279456
